OBJECT_NAME,OBJECT_ID,EPOCH,MEAN_MOTION,ECCENTRICITY,INCLINATION,RA_OF_ASC_NODE,ARG_OF_PERICENTER,MEAN_ANOMALY,EPHEMERIS_TYPE,CLASSIFICATION_TYPE,NORAD_CAT_ID,ELEMENT_SET_NO,REV_AT_EPOCH,BSTAR,MEAN_MOTION_DOT,MEAN_MOTION_DDOT
KUZGTU 1 (RS47S),2023-091AV,2026-06-17T10:14:14.305344,15.29865909,.0012294,97.5062,232.9090,97.3043,262.9595,0,U,57217,999,16441,.30945E-3,.8893E-4,0
SONATE-2,2024-043Q,2026-06-17T09:28:57.147168,15.58731492,.0007055,97.5537,318.8032,194.9241,165.1808,0,U,59112,999,12792,.4343E-3,.33446E-3,0
MESAT1,2024-125G,2026-06-16T20:24:17.756064,15.63168952,.0009546,97.2286,25.3248,204.9748,155.1050,0,U,60209,999,10951,.52812E-3,.4838E-3,0
OOV-CUBE (TUBSAT-30),2024-128F,2026-06-17T12:30:35.626752,15.02774646,.0044597,61.9933,224.4082,133.8376,226.6415,0,U,60240,999,10616,.12465E-3,.1494E-4,0
COLIBRI-S (RS67S),2024-199M,2026-06-17T12:20:43.499040,15.47735907,.0006259,97.2989,42.3713,277.4373,82.6166,0,U,61746,999,13746,.33803E-3,.1744E-3,0
HORS 3 (RS81S),2024-199U,2026-06-17T12:57:32.016096,15.54993224,.0003757,97.2972,44.3876,276.3135,83.7692,0,U,61753,999,13761,.44094E-3,.29525E-3,0
HORS 4 (RS82S),2024-199V,2026-06-17T11:59:15.163584,15.59703278,.0003103,97.2916,45.5499,256.5252,103.5659,0,U,61754,999,13769,.48866E-3,.3905E-3,0
SIT-2086,2024-199AF,2026-06-17T10:54:02.598336,15.53100498,.0004581,97.2927,44.7758,249.0919,110.9844,0,U,61764,999,13447,.47633E-3,.29789E-3,0
HYPERVIEW 1G (RS66S),2024-199AP,2026-06-17T07:35:55.719168,15.75864545,.0003758,97.2861,48.0422,218.3555,141.7444,0,U,61772,999,13469,.74599E-3,.116045E-2,0
ALTAIR (RS65S),2024-199AW,2026-06-17T12:03:46.344672,15.37026319,.0011095,97.3023,37.8514,309.9855,50.0415,0,U,61779,999,13716,.18178E-3,.6515E-4,0
ASRTU-1 (AO-123),2024-199AY,2026-06-17T11:46:44.915232,15.35679019,.0012288,97.2995,37.1588,312.9440,47.0772,0,U,61781,999,13397,.17958E-3,.6164E-4,0
SAMSAT-IONOSPHERE (RS75S),2024-199BB,2026-06-17T12:13:07.982688,15.57646818,.0005891,97.2939,44.4038,274.8940,85.1643,0,U,61784,999,13761,.52173E-3,.38614E-3,0
RTU MIREA 1 (RS51S),2024-199BC,2026-06-17T11:14:57.344064,15.61111976,.0005541,97.2928,45.1958,266.4237,93.6387,0,U,61785,999,13451,.54623E-3,.46133E-3,0
TEVEL2-4,2025-052D,2026-06-16T23:40:40.632960,15.34605865,.000486,97.3904,64.3780,103.4475,256.7310,0,U,63213,999,7008,.48034E-3,.16047E-3,0
TEVEL2-5,2025-052E,2026-06-16T22:36:15.547104,15.34430962,.0004796,97.3902,64.2812,104.9018,255.2757,0,U,63214,999,7007,.46132E-3,.15322E-3,0
TEVEL2-6,2025-052F,2026-06-17T06:43:33.040992,15.34404513,.0004721,97.3905,64.6042,105.0092,255.1673,0,U,63215,999,7012,.4364E-3,.14476E-3,0
TEVEL2-1,2025-052H,2026-06-16T23:35:41.335584,15.33862790,.0004776,97.3878,63.9315,114.0246,246.1497,0,U,63217,999,7006,.46759E-3,.15254E-3,0
TEVEL2-3,2025-052J,2026-06-16T23:27:59.118048,15.33918227,.0004723,97.3882,63.9480,114.1810,245.9927,0,U,63218,999,7006,.46354E-3,.15147E-3,0
TEVEL2-2,2025-052K,2026-06-16T15:46:26.181408,15.33861744,.0004715,97.3883,63.6082,115.1533,245.0199,0,U,63219,999,7001,.44263E-3,.14434E-3,0
TEVEL2-9,2025-052AD,2026-06-16T23:03:14.925888,15.31891765,.0007801,97.3943,63.2870,131.5476,228.6436,0,U,63237,999,6999,.42947E-3,.13167E-3,0
TEVEL2-7,2025-052AE,2026-06-17T11:00:39.214080,15.31607306,.0007894,97.3942,63.7002,130.4591,229.7340,0,U,63238,999,7006,.40647E-3,.12346E-3,0
TEVEL2-8,2025-052AF,2026-06-16T16:23:33.918144,15.31573973,.0007849,97.3946,62.9032,133.0156,227.1744,0,U,63239,999,6994,.40821E-3,.12386E-3,0
INNOSAT 16 (RS92S7),2025-155C,2026-06-17T12:38:36.610368,15.25459425,.0010604,97.4566,135.6535,174.1071,186.0293,0,U,64878,999,8072,.18597E-3,.4638E-4,0
GEOSCAN 6 (RS92S6),2025-155D,2026-06-17T12:12:18.359712,15.30156547,.0008398,97.4559,137.0616,161.3848,198.7701,0,U,64879,999,8081,.27861E-3,.8061E-4,0
GEOSCAN 1 (RS92S1),2025-155E,2026-06-17T12:15:39.165408,15.30752053,.0008333,97.4556,137.2122,161.1058,199.0494,0,U,64880,999,8082,.29515E-3,.8704E-4,0
239ALFEROV (RS61S),2025-155F,2026-06-17T11:31:16.451328,15.32945435,.0008082,97.4556,137.7437,158.1421,202.0167,0,U,64881,999,8085,.35798E-3,.11327E-3,0
GEOSCAN 2 (RS92S2),2025-155Q,2026-06-17T12:06:28.564128,15.31023436,.0008141,97.4555,137.3584,148.5342,211.6387,0,U,64890,999,8083,.29257E-3,.87E-4,0
GEOSCAN 5 (RS92S5),2025-155R,2026-06-17T11:15:22.944384,15.33263009,.0006794,97.4549,137.8701,161.7183,198.4304,0,U,64891,999,8086,.35746E-3,.11421E-3,0
GEOSCAN 4 (RS92S4),2025-155S,2026-06-17T12:26:32.851392,15.33419319,.0006862,97.4553,137.9685,161.1389,199.0109,0,U,64892,999,8087,.36471E-3,.11713E-3,0
GEOSCAN 3 (RS92S3),2025-155T,2026-06-17T12:27:01.157760,15.35405193,.0006824,97.4541,138.3994,159.4474,200.7045,0,U,64893,999,8090,.42884E-3,.14689E-3,0
