KUZGTU 1 (RS47S)        
1 57217U 23091AV  26168.42655446  .00008893  00000+0  30945-3 0  9997
2 57217  97.5062 232.9090 0012294  97.3043 262.9595 15.29865909164410
SONATE-2                
1 59112U 24043Q   26168.39510587  .00033446  00000+0  43430-3 0  9998
2 59112  97.5537 318.8032 0007055 194.9241 165.1808 15.58731492127923
MESAT1                  
1 60209U 24125G   26167.85020551  .00048380  00000+0  52812-3 0  9992
2 60209  97.2286  25.3248 0009546 204.9748 155.1050 15.63168952109514
OOV-CUBE (TUBSAT-30)    
1 60240U 24128F   26168.52124568  .00001494  00000+0  12465-3 0  9993
2 60240  61.9933 224.4082 0044597 133.8376 226.6415 15.02774646106169
COLIBRI-S (RS67S)       
1 61746U 24199M   26168.51439235  .00017440  00000+0  33803-3 0  9999
2 61746  97.2989  42.3713 0006259 277.4373  82.6166 15.47735907137463
HORS 3 (RS81S)          
1 61753U 24199U   26168.53995389  .00029525  00000+0  44094-3 0  9997
2 61753  97.2972  44.3876 0003757 276.3135  83.7692 15.54993224137618
HORS 4 (RS82S)          
1 61754U 24199V   26168.49948106  .00039050  00000+0  48866-3 0  9993
2 61754  97.2916  45.5499 0003103 256.5252 103.5659 15.59703278137691
SIT-2086                
1 61764U 24199AF  26168.45419674  .00029789  00000+0  47633-3 0  9992
2 61764  97.2927  44.7758 0004581 249.0919 110.9844 15.53100498134471
HYPERVIEW 1G (RS66S)    
1 61772U 24199AP  26168.31661712  .00116045  00000+0  74599-3 0  9991
2 61772  97.2861  48.0422 0003758 218.3555 141.7444 15.75864545134698
ALTAIR (RS65S)          
1 61779U 24199AW  26168.50261973  .00006515  00000+0  18178-3 0  9995
2 61779  97.3023  37.8514 0011095 309.9855  50.0415 15.37026319137169
ASRTU-1 (AO-123)        
1 61781U 24199AY  26168.49079763  .00006164  00000+0  17958-3 0  9995
2 61781  97.2995  37.1588 0012288 312.9440  47.0772 15.35679019133978
SAMSAT-IONOSPHERE (RS7*)
1 61784U 24199BB  26168.50912017  .00038614  00000+0  52173-3 0  9991
2 61784  97.2939  44.4038 0005891 274.8940  85.1643 15.57646818137613
RTU MIREA 1 (RS51S)     
1 61785U 24199BC  26168.46871926  .00046133  00000+0  54623-3 0  9997
2 61785  97.2928  45.1958 0005541 266.4237  93.6387 15.61111976134511
TEVEL2-4                
1 63213U 25052D   26167.98658140  .00016047  00000+0  48034-3 0  9991
2 63213  97.3904  64.3780 0004860 103.4475 256.7310 15.34605865 70081
TEVEL2-5                
1 63214U 25052E   26167.94184661  .00015322  00000+0  46132-3 0  9992
2 63214  97.3902  64.2812 0004796 104.9018 255.2757 15.34430962 70074
TEVEL2-6                
1 63215U 25052F   26168.28024353  .00014476  00000+0  43640-3 0  9992
2 63215  97.3905  64.6042 0004721 105.0092 255.1673 15.34404513 70124
TEVEL2-1                
1 63217U 25052H   26167.98311731  .00015254  00000+0  46759-3 0  9998
2 63217  97.3878  63.9315 0004776 114.0246 246.1497 15.33862790 70062
TEVEL2-3                
1 63218U 25052J   26167.97776757  .00015147  00000+0  46354-3 0  9993
2 63218  97.3882  63.9480 0004723 114.1810 245.9927 15.33918227 70063
TEVEL2-2                
1 63219U 25052K   26167.65724747  .00014434  00000+0  44263-3 0  9996
2 63219  97.3883  63.6082 0004715 115.1533 245.0199 15.33861744 70012
TEVEL2-9                
1 63237U 25052AD  26167.96058942  .00013167  00000+0  42947-3 0  9996
2 63237  97.3943  63.2870 0007801 131.5476 228.6436 15.31891765 69997
TEVEL2-7                
1 63238U 25052AE  26168.45878720  .00012346  00000+0  40647-3 0  9999
2 63238  97.3942  63.7002 0007894 130.4591 229.7340 15.31607306 70069
TEVEL2-8                
1 63239U 25052AF  26167.68303146  .00012386  00000+0  40821-3 0  9997
2 63239  97.3946  62.9032 0007849 133.0156 227.1744 15.31573973 69941
INNOSAT 16 (RS92S7)     
1 64878U 25155C   26168.52681262  .00004638  00000+0  18597-3 0  9999
2 64878  97.4566 135.6535 0010604 174.1071 186.0293 15.25459425 80720
GEOSCAN 6 (RS92S6)      
1 64879U 25155D   26168.50854583  .00008061  00000+0  27861-3 0  9994
2 64879  97.4559 137.0616 0008398 161.3848 198.7701 15.30156547 80815
GEOSCAN 1 (RS92S1)      
1 64880U 25155E   26168.51086997  .00008704  00000+0  29515-3 0  9995
2 64880  97.4556 137.2122 0008333 161.1058 199.0494 15.30752053 80826
239ALFEROV (RS61S)      
1 64881U 25155F   26168.48005152  .00011327  00000+0  35798-3 0  9991
2 64881  97.4556 137.7437 0008082 158.1421 202.0167 15.32945435 80857
GEOSCAN 2 (RS92S2)      
1 64890U 25155Q   26168.50449727  .00008700  00000+0  29257-3 0  9998
2 64890  97.4555 137.3584 0008141 148.5342 211.6387 15.31023436 80831
GEOSCAN 5 (RS92S5)      
1 64891U 25155R   26168.46901556  .00011421  00000+0  35746-3 0  9991
2 64891  97.4549 137.8701 0006794 161.7183 198.4304 15.33263009 80861
GEOSCAN 4 (RS92S4)      
1 64892U 25155S   26168.51843578  .00011713  00000+0  36471-3 0  9997
2 64892  97.4553 137.9685 0006862 161.1389 199.0109 15.33419319 80875
GEOSCAN 3 (RS92S3)      
1 64893U 25155T   26168.51876340  .00014689  00000+0  42884-3 0  9991
2 64893  97.4541 138.3994 0006824 159.4474 200.7045 15.35405193 80904
